[{"OBJECT_NAME":"KINEIS-5C","OBJECT_ID":"2024-219A","EPOCH":"2026-03-09T10:16:15.388896","MEAN_MOTION":14.72364906,"ECCENTRICITY":0.00018587,"INCLINATION":97.9657,"RA_OF_ASC_NODE":229.8875,"ARG_OF_PERICENTER":111.5072,"MEAN_ANOMALY":248.6333,"EPHEMERIS_TYPE":0,"CLASSIFICATION_TYPE":"U","NORAD_CAT_ID":62081,"ELEMENT_SET_NO":999,"REV_AT_EPOCH":6907,"BSTAR":0.00014320632,"MEAN_MOTION_DOT":8.57e-6,"MEAN_MOTION_DDOT":0},{"OBJECT_NAME":"DELTA 1 DEB","OBJECT_ID":"1975-052KG","EPOCH":"2026-03-09T12:36:40.913856","MEAN_MOTION":14.67603857,"ECCENTRICITY":0.00152343,"INCLINATION":99.5483,"RA_OF_ASC_NODE":78.6633,"ARG_OF_PERICENTER":242.2044,"MEAN_ANOMALY":269.7183,"EPHEMERIS_TYPE":0,"CLASSIFICATION_TYPE":"U","NORAD_CAT_ID":26828,"ELEMENT_SET_NO":999,"REV_AT_EPOCH":66818,"BSTAR":0.009778796,"MEAN_MOTION_DOT":0.00056042,"MEAN_MOTION_DDOT":0}]
